*******************************************************************************
Ephemeris / WWW_USER Mon Mar 26 20:35:53 2018 Pasadena, USA      / Horizons    
*******************************************************************************
Target body name: Charon (901)                    {source: plu055l_merged}
Center body name: Pluto Barycenter (9)            {source: plu055l_merged}
Center-site name: BODY CENTER
*******************************************************************************
Start time      : A.D. 2000-Jan-01 00:00:00.0000 TDB
Stop  time      : A.D. 2005-Jan-01 00:00:00.0000 TDB
Step-size       : 7200 minutes
*******************************************************************************
Center geodetic : 0.00000000,0.00000000,0.0000000 {E-lon(deg),Lat(deg),Alt(km)}
Center cylindric: 0.00000000,0.00000000,0.0000000 {E-lon(deg),Dxy(km),Dz(km)}
Center radii    : (undefined)                                                  
Output units    : AU-D                                                         
Output type     : GEOMETRIC cartesian states
Output format   : 2 (position and velocity)
Reference frame : ICRF/J2000.0                                                 
Coordinate systm: Ecliptic and Mean Equinox of Reference Epoch                 
*******************************************************************************
JDTDB
   X     Y     Z
   VX    VY    VZ
*******************************************************************************
$$SOE
2453014.500000000 = A.D. 2004-Jan-10 00:00:00.0000 TDB 
  -6.858764913928775E-05 -9.082318633196926E-05 -2.601086783802785E-05
  -5.070640386166817E-05  8.894576968224242E-06  1.026248668782773E-04
2453019.500000000 = A.D. 2004-Jan-15 00:00:00.0000 TDB 
   3.640324906335818E-05 -2.746207187921710E-05 -1.074519839668729E-04
  -7.641728409079827E-05 -8.561924404909504E-05 -4.025985691166732E-06
2453024.500000000 = A.D. 2004-Jan-20 00:00:00.0000 TDB 
   8.347396341529869E-05  7.956577683221752E-05 -1.797315818572639E-05
   1.943593111577919E-05 -4.395215996297489E-05 -1.043069713459529E-04
2453029.500000000 = A.D. 2004-Jan-25 00:00:00.0000 TDB 
  -2.271080080509471E-06  5.999588941954750E-05  1.001023764979331E-04
   8.436823278995130E-05  6.763867955918568E-05 -3.864507378692743E-05
2453034.500000000 = A.D. 2004-Jan-30 00:00:00.0000 TDB 
  -8.442016564500065E-05 -5.502180154316950E-05  5.895431211058210E-05
   1.510146314596029E-05  7.162146416688673E-05  8.845564318148495E-05
2453039.500000000 = A.D. 2004-Feb-04 00:00:00.0000 TDB 
  -3.233446150295084E-05 -8.255466451635791E-05 -7.594259810417106E-05
  -7.816975742007064E-05 -3.828616656445642E-05  7.488022488662357E-05
2453044.500000000 = A.D. 2004-Feb-09 00:00:00.0000 TDB 
   7.115974161134848E-05  2.119177263577287E-05 -9.005721703390400E-05
  -4.712944801628686E-05 -8.732585930450274E-05 -5.780376099335641E-05
2453049.500000000 = A.D. 2004-Feb-14 00:00:00.0000 TDB 
   6.143811123602059E-05  9.121255624351950E-05  3.909509093861655E-05
   5.890152340866982E-05  2.557532941682847E-06 -9.855521986539520E-05
2453054.500000000 = A.D. 2004-Feb-19 00:00:00.0000 TDB 
  -4.603758104458622E-05  1.611281007565327E-05  1.060554662828217E-04
   7.121806996986105E-05  8.835681704843143E-05  1.747419242759481E-05
2453059.500000000 = A.D. 2004-Feb-24 00:00:00.0000 TDB 
  -8.030692254730308E-05 -8.462875501665695E-05  4.340190629142523E-06
  -2.972128399419901E-05  3.362229614864368E-05  1.056786076247400E-04
2453064.500000000 = A.D. 2004-Feb-29 00:00:00.0000 TDB 
   1.311607092161324E-05 -5.080528192927106E-05 -1.042750104721700E-04
  -8.339999805901334E-05 -7.458369666765228E-05  2.582815638071926E-05
2453069.500000000 = A.D. 2004-Mar-05 00:00:00.0000 TDB 
   8.566061166468817E-05  6.381040038484643E-05 -4.703236051128928E-05
  -4.422669516832778E-06 -6.417707113600592E-05 -9.513698032584199E-05
2453074.500000000 = A.D. 2004-Mar-10 00:00:00.0000 TDB 
   2.191165296405658E-05  7.689500231433812E-05  8.503780529561485E-05
   8.159863784248295E-05  4.833450938437839E-05 -6.475351263214604E-05
2453079.500000000 = A.D. 2004-Mar-15 00:00:00.0000 TDB 
  -7.670909583466895E-05 -3.235432189163359E-05  8.184051005250485E-05
   3.781214473002441E-05  8.393684021007157E-05  6.861106726485843E-05
2453084.500000000 = A.D. 2004-Mar-20 00:00:00.0000 TDB 
  -5.335294717175014E-05 -9.016372844383368E-05 -5.150520569421970E-05
  -6.609149714233721E-05 -1.394051053827591E-05  9.284459800854802E-05
2453089.500000000 = A.D. 2004-Mar-25 00:00:00.0000 TDB 
   5.483666583807164E-05 -4.598057131374788E-06 -1.029380063764601E-04
  -6.489949649329552E-05 -8.966632225581423E-05 -3.058472980993839E-05
2453094.500000000 = A.D. 2004-Mar-30 00:00:00.0000 TDB 
   7.578160003251799E-05  8.826745355315771E-05  9.377666559263251E-06
   3.954558002288640E-05 -2.275925274942325E-05 -1.053922901483186E-04
2453099.500000000 = A.D. 2004-Apr-04 00:00:00.0000 TDB 
  -2.384940565069519E-05  4.069323280397504E-05  1.067764765597185E-04
   8.107141396327307E-05  8.034806097835127E-05 -1.253242736841388E-05
2453104.500000000 = A.D. 2004-Apr-09 00:00:00.0000 TDB 
  -8.556240790714573E-05 -7.162173713463058E-05  3.434344587278732E-05
  -6.344119463939537E-06  5.564370357746579E-05  1.002265730608113E-04
2453109.500000000 = A.D. 2004-Apr-14 00:00:00.0000 TDB 
  -1.122658547112147E-05 -7.005635452417572E-05 -9.270082026474152E-05
  -8.366662316762966E-05 -5.754429761035103E-05  5.359880704692211E-05
2453114.500000000 = A.D. 2004-Apr-19 00:00:00.0000 TDB 
   8.094814221022920E-05  4.291545799372219E-05 -7.230403165013542E-05
  -2.792416826130920E-05 -7.923152589066695E-05 -7.830357072531128E-05
2453119.500000000 = A.D. 2004-Apr-24 00:00:00.0000 TDB 
   4.433007090998453E-05  8.760055366510601E-05  6.312279210810984E-05
   7.225591746427857E-05  2.513476954777405E-05 -8.564904323648329E-05
2453124.500000000 = A.D. 2004-Apr-29 00:00:00.0000 TDB 
  -6.282380212909506E-05 -7.083830193954075E-06  9.813767419481857E-05
   5.748056237891684E-05  8.949621874125488E-05  4.324191109855318E-05
2453129.500000000 = A.D. 2004-May-04 00:00:00.0000 TDB 
  -7.007753250181926E-05 -9.051579133463123E-05 -2.292171683972548E-05
  -4.869429133267057E-05  1.152542781202405E-05  1.033343808910634E-04
2453134.500000000 = A.D. 2004-May-09 00:00:00.0000 TDB 
   3.409623417960491E-05 -3.001787275165568E-05 -1.075272848511352E-04
  -7.744093870242291E-05 -8.478529096379407E-05 -9.055116619053520E-07
2453139.500000000 = A.D. 2004-May-14 00:00:00.0000 TDB 
   8.401993328404135E-05  7.821175501928541E-05 -2.109460142043988E-05
   1.700346040789540E-05 -4.624331608905025E-05 -1.037395093876645E-04
2453144.500000000 = A.D. 2004-May-19 00:00:00.0000 TDB 
   2.593572345254604E-07  6.199764318206853E-05  9.890038626086824E-05
   8.439743111504800E-05  6.586802357840557E-05 -4.153358713820755E-05
2453149.500000000 = A.D. 2004-May-24 00:00:00.0000 TDB 
  -8.393077437183496E-05 -5.284927704667245E-05  6.158307640383108E-05
   1.754427689987826E-05  7.318670636896115E-05  8.670681715092718E-05
2453154.500000000 = A.D. 2004-May-29 00:00:00.0000 TDB 
  -3.466405337909254E-05 -8.366589177818028E-05 -7.366348709543400E-05
  -7.719724158852271E-05 -3.587415549890382E-05  7.705080949240357E-05
2453159.500000000 = A.D. 2004-Jun-03 00:00:00.0000 TDB 
   6.971610270488500E-05  1.856385423099750E-05 -9.175274989141346E-05
  -4.917496999948574E-05 -8.790328323263713E-05 -5.516425810077131E-05
2453164.500000000 = A.D. 2004-Jun-08 00:00:00.0000 TDB 
   6.317762075484813E-05  9.124863730892238E-05  3.612134671159719E-05
   5.709183434078799E-05 -9.185964919244272E-08 -9.964722926167817E-05
2453169.500000000 = A.D. 2004-Jun-13 00:00:00.0000 TDB 
  -4.388231414269138E-05  1.875503540533339E-05  1.065337229247222E-04
   7.252317322686355E-05  8.785104422754433E-05  1.438915086323771E-05
2453174.500000000 = A.D. 2004-Jun-18 00:00:00.0000 TDB 
  -8.116363034718525E-05 -8.358318934248890E-05  7.508845171111538E-06
  -2.737842130346235E-05  3.606283875193352E-05  1.055067169070329E-04
2453179.500000000 = A.D. 2004-Jun-23 00:00:00.0000 TDB 
   1.060941666826579E-05 -5.301940517516978E-05 -1.034548109546206E-04
  -8.374421557880903E-05 -7.307680907680317E-05  2.884296883275115E-05
2453184.500000000 = A.D. 2004-Jun-28 00:00:00.0000 TDB 
   8.549115787382955E-05  6.185796442124015E-05 -4.986598987436431E-05
  -6.908106164260201E-06 -6.600197274329383E-05 -9.372999624866388E-05
2453189.500000000 = A.D. 2004-Jul-03 00:00:00.0000 TDB 
   2.434906375175778E-05  7.831047326983722E-05  8.305837070695796E-05
   8.092674480944802E-05  4.608122731511842E-05 -6.719363964241346E-05
2453194.500000000 = A.D. 2004-Jul-08 00:00:00.0000 TDB 
  -7.554219261302505E-05 -2.982317948262417E-05  8.386324158607219E-05
   4.002143255338436E-05  8.483927298220802E-05  6.620700920830507E-05
2453199.500000000 = A.D. 2004-Jul-13 00:00:00.0000 TDB 
  -5.531174388461866E-05 -9.054187800173498E-05 -4.869748841292071E-05
  -6.451458409650182E-05 -1.131849082674107E-05  9.429841603813971E-05
2453204.500000000 = A.D. 2004-Jul-18 00:00:00.0000 TDB 
   5.286694775406695E-05 -7.284755609629451E-06 -1.038109076873953E-04
  -6.646310879251644E-05 -8.949399026804258E-05 -2.758353056013716E-05
2453209.500000000 = A.D. 2004-Jul-23 00:00:00.0000 TDB 
   7.693494185170210E-05  8.754602266106950E-05  6.211498697574246E-06
   3.732776408454813E-05 -2.531235476056257E-05 -1.056187126356311E-04
2453214.500000000 = A.D. 2004-Jul-28 00:00:00.0000 TDB 
  -2.140822527417826E-05  4.308428191615058E-05  1.063539257941294E-04
   8.172802140060754E-05  7.913194859436396E-05 -1.562567457303177E-05
2453219.500000000 = A.D. 2004-Aug-02 00:00:00.0000 TDB 
  -8.571637211007724E-05 -6.992210786176718E-05  3.733557954392799E-05
  -3.859022517501128E-06  5.769741745223214E-05  9.918687051628473E-05
